<!DOCTYPE html PUBLIC "-//W3C//DTD XHTML 1.0 Strict//EN" "http://www.w3.org/TR/xhtml1/DTD/xhtml1-strict.dtd">
<html xmlns="http://www.w3.org/1999/xhtml">
<head>
<meta http-equiv="Content-Type" content="text/html; charset=iso-8859-1"/>
<title>404 - File Not Found.</title>
<style type="text/css">
<!--
body{margin:0;font-size:.7em;font-family:Verdana, Arial, Helvetica, sans-serif;background:#EEEEEE;}
fieldset{padding:0 15px 10px 15px;}
h1{font-size:2.4em;margin:0;color:#FFF;}
h2{font-size:1.7em;margin:0;color:#CC0000;}
h3{font-size:1.2em;margin:10px 0 0 0;color:#000000;}
#header{width:96%;margin:0 0 0 0;padding:6px 2% 6px 2%;font-family:"trebuchet MS", Verdana, sans-serif;color:#FFF;
background-color:#555555;}
#content{margin:0 0 0 2%;position:relative;}
.content-container{background:#FFF;width:96%;margin-top:8px;padding:10px;position:relative;}
-->
</style>
</head>
<body>
<div id="header"><h1>Server Error</h1></div>
<div id="content">
 <div class="content-container"><fieldset>
  <h2>404 - File Not Found.</h2>
  <h3>File not found for celestrak.org/NORAD/elements/active.txt.</h3>
  <h3>Please contact <a href="mailto:ts.kelso@celestrak.org">ts.kelso@celestrak.org</a> if you have other questions.</h3>
 </fieldset></div>
</div>
</body>
</html>
MMS 4                   
1 40485U 15011D   24010.25001157 -.00001474  00000+0  00000+0 0  9992
2 40485  37.5813  27.8543 9167262 131.8530  86.7175  0.28445657 14902
ASTROSAT                
1 40930U 15052A   24006.16340880  .00001943  00000+0  17423-3 0  9997
2 40930   5.9997  85.2473 0008613 282.4744  77.4420 14.78268977447249
DAMPE                   
1 41173U 15078A   24010.13080821  .00001761  00000+0  70423-4 0  9991
2 41173  97.4203   4.5044 0012832 352.1688   7.9348 15.26376489448715
PISAT                   
1 41784U 16059B   24009.94209905  .00001167  00000+0  22326-3 0  9990
2 41784  97.8498  39.1712 0031468 156.9875 203.2746 14.65307368389330
HXMT (HUIYAN)           
1 42758U 17034A   24010.14332652  .00007308  00000+0  39597-3 0  9997
2 42758  43.0160  75.6900 0003547 264.2679  95.7764 15.15010986362728
FLYING LAPTOP           
1 42831U 17042G   24009.91079295  .00002450  00000+0  23408-3 0  9999
2 42831  97.3798 200.2263 0011873 251.0216 108.9719 14.94072986353348
ZHANGZHENG-1 (CSES)     
1 43194U 18015C   24010.12192234  .00013453  00000+0  61286-3 0  9998
2 43194  97.5867 152.5094 0017616   0.4608 359.6640 15.20658932329514
SALSAT                  
1 46495U 20068K   24009.81850175  .00006759  00000+0  41475-3 0  9994
2 46495  97.7967 325.6722 0015865 132.5011 227.7561 15.10357133180233
IXPE                    
1 49954U 21121A   24006.41326874  .00004793  00000+0  34592-3 0  9993
2 49954   0.2278 159.1773 0010150  26.2214 174.5899 14.96025373113478
<!DOCTYPE html PUBLIC "-//W3C//DTD XHTML 1.0 Strict//EN" "http://www.w3.org/TR/xhtml1/DTD/xhtml1-strict.dtd">
<html xmlns="http://www.w3.org/1999/xhtml">
<head>
<meta http-equiv="Content-Type" content="text/html; charset=iso-8859-1"/>
<title>404 - File Not Found.</title>
<style type="text/css">
<!--
body{margin:0;font-size:.7em;font-family:Verdana, Arial, Helvetica, sans-serif;background:#EEEEEE;}
fieldset{padding:0 15px 10px 15px;}
h1{font-size:2.4em;margin:0;color:#FFF;}
h2{font-size:1.7em;margin:0;color:#CC0000;}
h3{font-size:1.2em;margin:10px 0 0 0;color:#000000;}
#header{width:96%;margin:0 0 0 0;padding:6px 2% 6px 2%;font-family:"trebuchet MS", Verdana, sans-serif;color:#FFF;
background-color:#555555;}
#content{margin:0 0 0 2%;position:relative;}
.content-container{background:#FFF;width:96%;margin-top:8px;padding:10px;position:relative;}
-->
</style>
</head>
<body>
<div id="header"><h1>Server Error</h1></div>
<div id="content">
 <div class="content-container"><fieldset>
  <h2>404 - File Not Found.</h2>
  <h3>File not found for celestrak.org/NORAD/elements/ses.txt.</h3>
  <h3>Please contact <a href="mailto:ts.kelso@celestrak.org">ts.kelso@celestrak.org</a> if you have other questions.</h3>
 </fieldset></div>
</div>
</body>
</html>
ISS (ZARYA)             
1 25544U 98067A   24010.36613804  .00013217  00000+0  23730-3 0  9999
2 25544  51.6415  22.2811 0003737  16.1791  75.3425 15.50221648433926
ISS DEB                 
1 47853U 98067RZ  24010.19715632  .00117617  16355-4  35051-3 0  9992
2 47853  51.6270 310.5809 0002329  88.5711 271.5562 15.92261665161483
CSS (TIANHE)            
1 48274U 21035A   24009.33344652  .00039151  00000+0  42952-3 0  9994
2 48274  41.4702 339.6515 0004800  62.9190 297.2139 15.62457127154076
ISS (NAUKA)             
1 49044U 21066A   24009.53618896  .00012914  00000+0  23226-3 0  9991
2 49044  51.6421  26.3957 0003666  14.0878 122.6248 15.50197586433791
FREGAT DEB              
1 49271U 11037PF  24009.35337473  .00002302  00000+0  54683-2 0  9999
2 49271  51.6761  83.3576 0995732 147.3408 219.3209 12.11371672115807
CSS (WENTIAN)           
1 53239U 22085A   24009.33344652  .00039151  00000+0  42952-3 0  9997
2 53239  41.4702 339.6515 0004800  62.9190 297.2139 15.62457127154073
CSS (MENGTIAN)          
1 54216U 22143A   24009.33344652  .00039151  00000+0  42952-3 0  9998
2 54216  41.4702 339.6515 0004800  62.9190 297.2139 15.62457127154079
TIANZHOU-6              
1 56446U 23063A   24009.33344652  .00039151  00000+0  42952-3 0  9997
2 56446  41.4702 339.6515 0004800  62.9190 297.2139 15.62457127154076
ISS DEB                 
1 57212U 98067VP  24009.41143030  .00058396  00000+0  54172-3 0  9990
2 57212  51.6352  16.0897 0004445  75.5570 284.5919 15.66876869 30854
1998-067VR              
1 57313U 98067VR  24009.99116417  .00377346  65141-4  11329-2 0  9991
2 57313  51.6281   4.1088 0005542  65.4606 294.6978 15.91720633 29371
MOONLIGHTER             
1 57316U 98067VU  24009.37870712  .00090106  00000+0  51936-3 0  9994
2 57316  51.6336   9.7817 0004474  84.4500 275.7011 15.77917996 29230
CYGNUS NG-19            
1 57488U 23110A   24009.44185305  .00021942  00000+0  31414-3 0  9997
2 57488  51.6443  26.0643 0002674  83.4696 276.6600 15.56114269 24893
PROGRESS-MS 24          
1 57691U 23125A   24009.53618896  .00012914  00000+0  23226-3 0  9996
2 57691  51.6421  26.3957 0003666  14.0878 122.6248 15.50197586433798
CREW DRAGON 7           
1 57697U 23128A   24009.53618896  .00012914  00000+0  23226-3 0  9995
2 57697  51.6421  26.3957 0003666  14.0878 122.6248 15.50197586433794
SOYUZ-MS 24             
1 57862U 23143A   24009.53618896  .00012914  00000+0  23226-3 0  9996
2 57862  51.6421  26.3957 0003666  14.0878 122.6248 15.50197586433798
SHENZHOU-17 (SZ-17)     
1 58146U 23164A   24009.33344652  .00039151  00000+0  42952-3 0  9998
2 58146  41.4702 339.6515 0004800  62.9190 297.2139 15.62457127154075
ISS DEB                 
1 58174U 98067WA  24010.19953951  .00099935  00000+0  11085-2 0  9995
2 58174  51.6379  19.8669 0006066  47.9952 312.1558 15.62123023 11924
ISS DEB                 
1 58229U 98067WC  24009.30667692  .00049283  00000+0  69047-3 0  9994
2 58229  51.6396  25.9084 0004073  38.3204 321.8076 15.56271856 10554
PROGRESS-MS 25          
1 58460U 23184A   24009.53618896  .00012914  00000+0  23226-3 0  9996
2 58460  51.6421  26.3957 0003666  14.0878 122.6248 15.50197586433793
BEAK                    
1 58612U 98067WD  24009.54329293  .00048227  00000+0  75202-3 0  9995
2 58612  51.6405  25.9858 0005795  58.3257 301.8298 15.53344956  3524
CLARK SAT-1 (AMBITIOUS) 
1 58613U 98067WE  24010.11380489  .00083968  00000+0  12334-2 0  9992
2 58613  51.6400  23.0465 0007185  78.7673 281.4125 15.54738593  3589
TDRS 3                  
1 19548U 88091B   24009.77992747 -.00000282  00000+0  00000+0 0  9991
2 19548  13.2861 347.0458 0040086 335.4076  18.1030  1.00278948116467
HST                     
1 20580U 90037B   24009.94110091  .00005803  00000+0  28874-3 0  9991
2 20580  28.4707 330.1444 0002630 100.8746 304.2189 15.15472659652837
TDRS 5                  
1 21639U 91054B   24009.68461976  .00000100  00000+0  00000+0 0  9991
2 21639  14.1830   0.2894 0025279 355.2879 192.3261  1.00273269118797
TDRS 6                  
1 22314U 93003B   24010.08010892 -.00000282  00000+0  00000+0 0  9993
2 22314  14.1575   3.5817 0007324 164.8611 283.6798  1.00271945113461
TDRS 7                  
1 23613U 95035B   24009.44826588 -.00000182  00000+0  00000+0 0  9997
2 23613  13.7481 354.3607 0023360  61.4806 298.5842  1.00267156104324
ISS (ZARYA)             
1 25544U 98067A   24010.36613804  .00013217  00000+0  23730-3 0  9999
2 25544  51.6415  22.2811 0003737  16.1791  75.3425 15.50221648433926
LANDSAT 7               
1 25682U 99020A   24010.14939456  .00000550  00000+0  12255-3 0  9998
2 25682  97.9066  44.3226 0001643  97.2317 354.8432 14.60406660315984
TERRA                   
1 25994U 99068A   24010.18110709  .00000622  00000+0  14037-3 0  9992
2 25994  98.0711  78.2099 0002873 121.5145 260.6511 14.59525578279977
TDRS 8                  
1 26388U 00034A   24009.25490128  .00000110  00000+0  00000+0 0  9990
2 26388  11.2835  38.4839 0005227 238.3016 115.5474  1.00276377 86254
TIMED                   
1 26998U 01055B   24010.02537722  .00001375  00000+0  14438-3 0  9998
2 26998  74.0695 219.4698 0002173 276.4670  83.6265 14.90589383198245
TDRS 9                  
1 27389U 02011A   24009.66068848  .00000068  00000+0  00000+0 0  9996
2 27389  10.2582  55.3181 0003032 147.6728 215.4975  0.98978928 81489
AQUA                    
1 27424U 02022A   24010.14670243  .00001272  00000+0  28265-3 0  9996
2 27424  98.3125 319.1757 0000569  89.2861  35.8176 14.58734953153521
TDRS 10                 
1 27566U 02055A   24009.82709380  .00000101  00000+0  00000+0 0  9990
2 27566   9.2619  46.4928 0004788 292.4425 256.6466  1.00266265 77314
SORCE                   
1 27651U 03004A   24010.17376088  .00003238  00000+0  31344-3 0  9998
2 27651  39.9932 257.4620 0019883 194.3402 165.6826 14.93617671138478
